ONEWEB-0228             
1 48780U 21045P   24070.88855858  .00000144  00000+0  34733-3 0  9998
2 48780  87.8953  64.0233 0001943  83.0241 277.1110 13.15547288135420
